{"type": "FeatureCollection", "features": [{"type": "Feature", "properties": {"highway": "primary", "name": "Anna Salai", "oneway": true, "direction": 180.0, "construction": false, "cycleway": false, "lanes": 2}, "geometry": {"type": "LineString", "coordinates": [[80.2518, 13.068999999999999], [80.2518, 13.065]]}}, {"type": "Feature", "properties": {"highway": "primary", "name": "Anna Salai", "oneway": true, "direction": 180.0, "construction": false, "cycleway": false, "lanes": 2}, "geometry": {"type": "LineString", "coordinates": [[80.2518, 13.065], [80.2518, 13.061]]}}, {"type": "Feature", "properties": {"highway": "primary", "name": "Anna Salai", "oneway": true, "direction": 180.0, "construction": false, "cycleway": false, "lanes": 2}, "geometry": {"type": "LineString", "coordinates": [[80.2518, 13.061], [80.2518, 13.056999999999999]]}}, {"type": "Feature", "properties": {"highway": "primary", "name": "Anna Salai", "oneway": true, "direction": 180.0, "construction": false, "cycleway": false, "lanes": 2}, "geometry": {"type": "LineString", "coordinates": [[80.2518, 13.056999999999999], [80.2518, 13.052999999999999]]}}, {"type": "Feature", "properties": {"highway": "primary", "name": "Anna Salai", "oneway": true, "direction": 180.0, "construction": false, "cycleway": false, "lanes": 2}, "geometry": {"type": "LineString", "coordinates": [[80.2518, 13.052999999999999], [80.2518, 13.049]]}}, {"type": "Feature", "properties": {"highway": "primary", "name": "Anna Salai", "oneway": true, "direction": 180.0, "construction": false, "cycleway": false, "lanes": 2}, "geometry": {"type": "LineString", "coordinates": [[80.2518, 13.049], [80.2518, 13.045]]}}, {"type": "Feature", "properties": {"highway": "primary", "name": "Anna Salai", "oneway": true, "direction": 180.0, "construction": false, "cycleway": false, "lanes": 2}, "geometry": {"type": "LineString", "coordinates": [[80.2518, 13.045], [80.2518, 13.041]]}}, {"type": "Feature", "properties": {"highway": "primary", "name": "Anna Salai", "oneway": true, "direction": 180.0, "construction": false, "cycleway": false, "lanes": 2}, "geometry": {"type": "LineString", "coordinates": [[80.2518, 13.041], [80.2518, 13.036999999999999]]}}, {"type": "Feature", "properties": {"highway": "primary", "name": "Anna Salai", "oneway": true, "direction": 180.0, "construction": false, "cycleway": false, "lanes": 2}, "geometry": {"type": "LineString", "coordinates": [[80.2518, 13.036999999999999], [80.2518, 13.033]]}}, {"type": "Feature", "properties": {"highway": "primary", "name": "Anna Salai", "oneway": true, "direction": 180.0, "construction": false, "cycleway": false, "lanes": 2}, "geometry": {"type": "LineString", "coordinates": [[80.2518, 13.033], [80.2518, 13.029]]}}, {"type": "Feature", "properties": {"highway": "primary", "name": "Anna Salai", "oneway": true, "direction": 180.0, "construction": false, "cycleway": false, "lanes": 2}, "geometry": {"type": "LineString", "coordinates": [[80.2518, 13.029], [80.2518, 13.025]]}}, {"type": "Feature", "properties": {"highway": "primary", "name": "Anna Salai", "oneway": true, "direction": 180.0, "construction": true, "cycleway": false, "lanes": 1}, "geometry": {"type": "LineString", "coordinates": [[80.2518, 13.043], [80.2518, 13.039]]}}, {"type": "Feature", "properties": {"highway": "cycleway", "name": "Anna Salai cycleway", "oneway": false, "direction": 180.0, "construction": false, "cycleway": true, "lanes": 1}, "geometry": {"type": "LineString", "coordinates": [[80.2506, 13.061], [80.2506, 13.036999999999999]]}}]}