{"type": "FeatureCollection", "features": [{"type": "Feature", "properties": {"highway": "motorway", "name": "I-95", "oneway": true, "direction": 45.0, "construction": false, "cycleway": false, "lanes": 3}, "geometry": {"type": "LineString", "coordinates": [[-77.06094213562373, 38.790957864376274], [-77.058113708499, 38.79378629150102]]}}, {"type": "Feature", "properties": {"highway": "motorway", "name": "I-95", "oneway": true, "direction": 45.0, "construction": false, "cycleway": false, "lanes": 3}, "geometry": {"type": "LineString", "coordinates": [[-77.058113708499, 38.79378629150102], [-77.05528528137424, 38.79661471862576]]}}, {"type": "Feature", "properties": {"highway": "motorway", "name": "I-95", "oneway": true, "direction": 45.0, "construction": false, "cycleway": false, "lanes": 3}, "geometry": {"type": "LineString", "coordinates": [[-77.05528528137424, 38.79661471862576], [-77.0524568542495, 38.79944314575051]]}}, {"type": "Feature", "properties": {"highway": "motorway", "name": "I-95", "oneway": true, "direction": 45.0, "construction": false, "cycleway": false, "lanes": 3}, "geometry": {"type": "LineString", "coordinates": [[-77.0524568542495, 38.79944314575051], [-77.04962842712474, 38.802271572875256]]}}, {"type": "Feature", "properties": {"highway": "motorway", "name": "I-95", "oneway": true, "direction": 45.0, "construction": false, "cycleway": false, "lanes": 3}, "geometry": {"type": "LineString", "coordinates": [[-77.04962842712474, 38.802271572875256], [-77.0468, 38.8051]]}}, {"type": "Feature", "properties": {"highway": "motorway", "name": "I-95", "oneway": true, "direction": 45.0, "construction": false, "cycleway": false, "lanes": 3}, "geometry": {"type": "LineString", "coordinates": [[-77.0468, 38.8051], [-77.04397157287526, 38.80792842712475]]}}, {"type": "Feature", "properties": {"highway": "motorway", "name": "I-95", "oneway": true, "direction": 45.0, "construction": false, "cycleway": false, "lanes": 3}, "geometry": {"type": "LineString", "coordinates": [[-77.04397157287526, 38.80792842712475], [-77.04114314575051, 38.8107568542495]]}}, {"type": "Feature", "properties": {"highway": "motorway", "name": "I-95", "oneway": true, "direction": 45.0, "construction": false, "cycleway": false, "lanes": 3}, "geometry": {"type": "LineString", "coordinates": [[-77.04114314575051, 38.8107568542495], [-77.03831471862577, 38.813585281374245]]}}, {"type": "Feature", "properties": {"highway": "motorway", "name": "I-95", "oneway": true, "direction": 45.0, "construction": false, "cycleway": false, "lanes": 3}, "geometry": {"type": "LineString", "coordinates": [[-77.03831471862577, 38.813585281374245], [-77.03548629150102, 38.816413708498985]]}}, {"type": "Feature", "properties": {"highway": "motorway", "name": "I-95", "oneway": true, "direction": 45.0, "construction": false, "cycleway": false, "lanes": 3}, "geometry": {"type": "LineString", "coordinates": [[-77.03548629150102, 38.816413708498985], [-77.03265786437628, 38.81924213562373]]}}, {"type": "Feature", "properties": {"highway": "motorway", "name": "I-95", "oneway": true, "direction": 45.0, "construction": false, "cycleway": false, "lanes": 3}, "geometry": {"type": "LineString", "coordinates": [[-77.03265786437628, 38.81924213562373], [-77.02982943725152, 38.82207056274848]]}}, {"type": "Feature", "properties": {"highway": "motorway", "name": "I-95", "oneway": true, "direction": 45.0, "construction": true, "cycleway": false, "lanes": 1}, "geometry": {"type": "LineString", "coordinates": [[-77.04255735931288, 38.80934264068712], [-77.03972893218814, 38.81217106781187]]}}, {"type": "Feature", "properties": {"highway": "cycleway", "name": "I-95 cycleway", "oneway": false, "direction": 45.0, "construction": false, "cycleway": true, "lanes": 1}, "geometry": {"type": "LineString", "coordinates": [[-77.05443675323681, 38.79576619048834], [-77.03746619048835, 38.81273675323682]]}}]}