{"type": "FeatureCollection", "features": [{"type": "Feature", "properties": {"highway": "motorway", "name": "I-405", "oneway": true, "direction": 350.0, "construction": false, "cycleway": false, "lanes": 3}, "geometry": {"type": "LineString", "coordinates": [[-118.34272703644666, 33.900903844939755], [-118.34342162915732, 33.9048430759518]]}}, {"type": "Feature", "properties": {"highway": "motorway", "name": "I-405", "oneway": true, "direction": 350.0, "construction": false, "cycleway": false, "lanes": 3}, "geometry": {"type": "LineString", "coordinates": [[-118.34342162915732, 33.9048430759518], [-118.34411622186799, 33.90878230696385]]}}, {"type": "Feature", "properties": {"highway": "motorway", "name": "I-405", "oneway": true, "direction": 350.0, "construction": false, "cycleway": false, "lanes": 3}, "geometry": {"type": "LineString", "coordinates": [[-118.34411622186799, 33.90878230696385], [-118.34481081457866, 33.912721537975905]]}}, {"type": "Feature", "properties": {"highway": "motorway", "name": "I-405", "oneway": true, "direction": 350.0, "construction": false, "cycleway": false, "lanes": 3}, "geometry": {"type": "LineString", "coordinates": [[-118.34481081457866, 33.912721537975905], [-118.34550540728932, 33.91666076898795]]}}, {"type": "Feature", "properties": {"highway": "motorway", "name": "I-405", "oneway": true, "direction": 350.0, "construction": false, "cycleway": false, "lanes": 3}, "geometry": {"type": "LineString", "coordinates": [[-118.34550540728932, 33.91666076898795], [-118.3462, 33.9206]]}}, {"type": "Feature", "properties": {"highway": "motorway", "name": "I-405", "oneway": true, "direction": 350.0, "construction": false, "cycleway": false, "lanes": 3}, "geometry": {"type": "LineString", "coordinates": [[-118.3462, 33.9206], [-118.34689459271067, 33.92453923101205]]}}, {"type": "Feature", "properties": {"highway": "motorway", "name": "I-405", "oneway": true, "direction": 350.0, "construction": false, "cycleway": false, "lanes": 3}, "geometry": {"type": "LineString", "coordinates": [[-118.34689459271067, 33.92453923101205], [-118.34758918542133, 33.928478462024096]]}}, {"type": "Feature", "properties": {"highway": "motorway", "name": "I-405", "oneway": true, "direction": 350.0, "construction": false, "cycleway": false, "lanes": 3}, "geometry": {"type": "LineString", "coordinates": [[-118.34758918542133, 33.928478462024096], [-118.348283778132, 33.93241769303615]]}}, {"type": "Feature", "properties": {"highway": "motorway", "name": "I-405", "oneway": true, "direction": 350.0, "construction": false, "cycleway": false, "lanes": 3}, "geometry": {"type": "LineString", "coordinates": [[-118.348283778132, 33.93241769303615], [-118.34897837084267, 33.9363569240482]]}}, {"type": "Feature", "properties": {"highway": "motorway", "name": "I-405", "oneway": true, "direction": 350.0, "construction": false, "cycleway": false, "lanes": 3}, "geometry": {"type": "LineString", "coordinates": [[-118.34897837084267, 33.9363569240482], [-118.34967296355333, 33.940296155060246]]}}, {"type": "Feature", "properties": {"highway": "motorway", "name": "I-405", "oneway": true, "direction": 350.0, "construction": false, "cycleway": false, "lanes": 3}, "geometry": {"type": "LineString", "coordinates": [[-118.34967296355333, 33.940296155060246], [-118.350367556264, 33.94423538607229]]}}, {"type": "Feature", "properties": {"highway": "motorway", "name": "I-405", "oneway": true, "direction": 350.0, "construction": true, "cycleway": false, "lanes": 1}, "geometry": {"type": "LineString", "coordinates": [[-118.347241889066, 33.926508846518075], [-118.34793648177667, 33.93044807753012]]}}, {"type": "Feature", "properties": {"highway": "cycleway", "name": "I-405 cycleway", "oneway": false, "direction": 350.0, "construction": false, "cycleway": true, "lanes": 1}, "geometry": {"type": "LineString", "coordinates": [[-118.34293445256438, 33.90899068477705], [-118.34710200882839, 33.93262607084935]]}}]}